******************************************************************************* Revised: July 31, 2013                  Sun                                 10 PHYSICAL PROPERTIES (updated 2018-Aug-15):  GM, km^3/s^2          = 132712440041.93938  Mass, 10^24 kg        = ~1988500  Vol. mean radius, km  = 695700              Volume, 10^12 km^3    = 1412000  Solar radius (IAU)    = 696000 km           Mean density, g/cm^3  = 1.408  Radius (photosphere)  = 696500 km           Angular diam at 1 AU  = 1919.3"  Photosphere temp., K  = 6600 (bottom)       Photosphere temp., K  = 4400(top)  Photospheric depth    = ~500 km             Chromospheric depth   = ~2500 km  Flatness, f           = 0.00005             Adopted sid. rot. per.= 25.38 d  Surface gravity       =  274.0 m/s^2        Escape speed, km/s    =  617.7  Pole (RA,DEC), deg.   = (286.13, 63.87)     Obliquity to ecliptic = 7.25 deg.  Solar constant (1 AU) = 1367.6 W/m^2        Luminosity, 10^24 J/s = 382.8  Mass-energy conv rate = 4.260 x 10^9 kg/s   Effective temp, K     = 5772  Sunspot cycle         = 11.4 yr             Cycle 24 sunspot min. = 2008 A.D.  Motion relative to nearby stars = apex : R.A.= 271 deg.; DEC.= +30 deg.                                    speed: 19.4 km/s (0.0112 au/day)  Motion relative to 2.73K BB/CBR = apex : l= 264.7 +- 0.8; b= 48.2 +- 0.5 deg.                                    speed: 369 +-11 km/s*******************************************************************************  *******************************************************************************Ephemeris / WWW_USER Fri Jan 29 14:18:03 2021 Pasadena, USA      / Horizons*******************************************************************************Target body name: Sun (10)                        {source: DE431mx}Center body name: Solar System Barycenter (0)     {source: DE431mx}Center-site name: BODY CENTER*******************************************************************************Start time      : A.D. 2021-Jan-01 00:00:00.0000 TDBStop  time      : A.D. 2021-Jan-02 00:00:00.0000 TDBStep-size       : 1440 minutes*******************************************************************************Center geodetic : 0.00000000,0.00000000,0.0000000 {E-lon(deg),Lat(deg),Alt(km)}Center cylindric: 0.00000000,0.00000000,0.0000000 {E-lon(deg),Dxy(km),Dz(km)}Center radii    : (undefined)                                                  Output units    : KM-SOutput type     : GEOMETRIC cartesian statesOutput format   : 2 (position and velocity)Reference frame : Ecliptic of J2000.0*******************************************************************************            JDTDB,            Calendar Date (TDB),                      X,                      Y,                      Z,                     VX,                     VY,                     VZ,**************************************************************************************************************************************************************************************************$$SOE2459215.500000000, A.D. 2021-Jan-01 00:00:00.0000, -9.950086305708732E+05,  8.981693961241948E+05,  1.580959086648613E+04, -1.184293406608770E-02, -9.977310948945361E-03,  3.738251265369003E-04,2459216.500000000, A.D. 2021-Jan-02 00:00:00.0000, -9.960313994625430E+05,  8.973066252342983E+05,  1.584188086948090E+04, -1.183225907509579E-02, -9.994241094822501E-03,  3.736276367234930E-04,$$EOE**************************************************************************************************************************************************************************************************Coordinate system description:  Ecliptic at the standard reference epoch    Reference epoch: J2000.0    X-Y plane: adopted Earth orbital plane at the reference epoch               Note: obliquity of 84381.448 arcseconds (IAU76) wrt ICRF equator    X-axis   : ICRF    Z-axis   : perpendicular to the X-Y plane in the directional (+ or -) sense               of Earth's north pole at the reference epoch.  Symbol meaning:    JDTDB    Julian Day Number, Barycentric Dynamical Time      X      X-component of position vector (km)      Y      Y-component of position vector (km)      Z      Z-component of position vector (km)      VX     X-component of velocity vector (km/sec)                                 VY     Y-component of velocity vector (km/sec)                                 VZ     Z-component of velocity vector (km/sec)                           Geometric states/elements have no aberrations applied. Computations by ...     Solar System Dynamics Group, Horizons On-Line Ephemeris System     4800 Oak Grove Drive, Jet Propulsion Laboratory     Pasadena, CA  91109   USA     Information  : https://ssd.jpl.nasa.gov/     Documentation: https://ssd.jpl.nasa.gov/?horizons_doc     Connect      : https://ssd.jpl.nasa.gov/?horizons (browser)                    telnet ssd.jpl.nasa.gov 6775       (command-line)                    e-mail command interface available                    Script and CGI interfaces available     Author       : Jon.D.Giorgini@jpl.nasa.gov*******************************************************************************